"BRAND","REGION","LOCATION","ADDRESS","LATITUDE","LONGITUDE"
포토이즘,인천,부평점,인천광역시 부평구 부평문화로66번길 23,"37.4930090596778","126.72400816904796"
포토이즘,인천,주안점,인천광역시 미추홀구 주안로 100,"37.46377274926853","126.68072450124025"
포토이즘,인천,검단사거리점,인천광역시 서구 검단로459번길 10 왕길프라자,"37.60204545484656","126.65549557326122 "
포토이즘,인천,청라시티타워점,인천광역시 서구 청라한내로100번길 8-28,"37.53330736697702","126.63043202821004"
포토이즘,인천,원당점,인천광역시 서구 이음5로 66,"37.594640671844886","126.71513233635339"
포토이즘,인천,송도타임스페이스점,인천광역시 연수구 하모니로 144 송도 지웰푸르지오시티,"37.38426181132934","126.64334548673862"
포토이즘,인천,서창점,인천광역시 남동구 서창남순환로216번길 17 스카이플러스,"37.423509954692705","126.74941998546461"
포토이즘,인천,송도가로수길점,인천광역시 연수구 컨벤시아대로 60,"37.397340571051664","126.65105624560393"
포토이즘,인천,계양구청점,인천광역시 계양구 계산새로 85,"37.53819133178987","126.73754382222184"
포토이즘,인천,굴포천역점,인천광역시 부평구 충선로203번길 58,"37.50783779678113","126.73303560343174"
포토이즘,인천,루원시티점,인천광역시 서구 봉오재3로 100,"37.52716938755837","126.67080732478207"
포토이즘,인천,연수점,인천광역시 연수구 용담로 115,"37.41511022800752","126.67781626668734"
포토이즘,인천,가좌점,인천광역시 서구 장고개로337번길 16,"37.49312194142212","126.68536305450101"
포토이즘,인천,앨리웨이점,인천광역시 미추홀구 숙골로87번길 5,"37.46970090988861","126.66350820313484"
포토이즘,인천,논현점,인천광역시 남동구 청능대로 563,"37.400967726970826","126.72176257031042"
포토이즘,인천,인하대점,인천광역시 미추홀구 경인남길30번길 49,"37.45181561961953","126.65714074642997"
포토이즘,인천,구월점,인천광역시 남동구 인하로 497-22,"37.444186759736084","126.70218266610429"
포토이즘,인천,마전점,인천광역시 서구 완정로 19 검단무광프라자,"37.59484332241099","126.67174367145459"
포토이즘,인천,영종점,인천광역시 중구 신도시남로142번길 3,"37.59485905013975","126.6717294483002"
포토이즘,인천,송도트리플점,인천광역시 연수구 송도과학로16번길 33-4 송도트리플스트리트,"37.37885227850558","126.66370846274324"
포토이즘,인천,동인천점,인천광역시 중구 우현로87번길 30,"37.47524954938779","126.62912407424056"
포토이즘,인천,월미도점,인천광역시 중구 월미로234번길 6,"37.475472900960035","126.59889287101018"
포토이즘,인천,청라점,인천광역시 서구 청라라임로 65 라임타워,"37.53342094304555","126.65301976707423"
인생네컷,인천,부평지하상가로드2호점,인천광역시 부평구 광장로 30 대아지하상가,"37.49055242873777","126.72437622132354"
인생네컷,인천,부평지하상가로드1호점,인천광역시 부평구 광장로 30 대아지하상가,"37.49055242873777","126.72437622132354"
인생네컷,인천,구월점,인천광역시 남동구 성말로 16 신현파크프라자,"37.44513068074038","126.70222695244827"
인생네컷,인천,서구청점,인천광역시 미추홀구 용정공원로83번길 49 인하대역 헤리움 메트로 타워,"37.44758048225967","126.64857130591352"
인생네컷,인천,구월힐캐슬점,인천광역시 남동구 용천로 80,"37.456566758108124","126.71501829479567"
인생네컷,인천,인천강화모노레일점,인천광역시 강화군 교동면 고구리 산233-1,"37.78399187087604","126.29072281438073"
인생네컷,인천,부평2호점,인천광역시 부평구 시장로 20,"37.49260882204559","126.72527894383843"
인생네컷,인천,서창점,인천광역시 남동구 서창남로 42 서창스퀘어,"37.42347716704283","126.75095936751055"
인생네컷,인천,송도캐슬점,인천광역시 연수구 하모니로138번길 11 송도캐슬센트럴파크,"37.38494494024159","126.64280025423184"
인생네컷,인천,인천푸드케어점,인천광역시 연수구 청능대로 210 스퀘어원,"37.40600519518157","126.68355629521878"
인생네컷,인천,논현점,인천광역시 남동구 논고개로123번길 24,"37.40219034797812","126.722503467805"
인생네컷,인천,완정역점,인천광역시 서구 청마로167번길 3,"37.59213719483918","126.67630734037849"
인생네컷,인천,삼산점,인천광역시 부평구 길주로 635 엘림타워,"37.50728184748559","126.733221371228"
인생네컷,인천,송도가로수길점,인천광역시 연수구 신송로 161 송도 하이츠,"37.39760754945805","126.64841232809631"
인생네컷,인천,계산점,인천광역시 계양구 계산새로 71 하이베라스,"37.538593568892566","126.7361026095481"
인생네컷,인천,부평지하상가로드점,인천광역시 부평구 광장로 16 부평민자역사,"37.489522774424046","37.489522774424046"
인생네컷,인천,검단할매맥주로드점,인천광역시 서구 검단로459번길 3,"37.60174266116053","126.65516573398047"
인생네컷,인천,검단누나홀닭로드점,인천광역시 서구 완정로 43 마전프라자,"37.595899647196276","126.66929317439893"
인생네컷,인천,영종하늘도시점,인천광역시 중구자연대로 41 영종스카이스타,"37.48840410554996","126.55955688977738"
인생네컷,인천,하늘도시로드점,인천광역시 중구 을왕로13번길 9-1 을왕2통마을회관,"37.44551556440982","126.37328877844956"
인생네컷,인천,부평점,인천광역시 부평구 부평대로20번길 21,"37.49328248894236","126.7243831510825"
인생네컷,인천,청라점,인청광역시 서구 청라라임로 57 영화블렌하임,"37.53259169652098","126.65290764210523"
인생네컷,인천,인하대점,인천광역시 미추홀구 경인남길30번길 50,"37.45161728544856","126.6571020960252"
인생네컷,인천,송도점,인천광역시 연수구 송도과학로16번길 33-2 송도 트리플스트리트,"37.380432651659675","126.66023509015648"
포토그레이,인천,삼산점,인천광역시 부평구 체육관로 34,"37.508266766841025","126.73547990161174"
포토그레이,인천,구월동점,인천광역시 남동구 구월동 1463번지,"37.44517173962842","126.70153744920742"
포토그레이,인천,루원시티점,인천광역시 서구 봉오재3로 100,"37.527158133103335","126.67081020249195"
포토그레이,인천,송도점,인천광역시 연수구 송도과학로28번길 8,"37.382481408905086","126.6606492681547"
포토그레이,인천,서창동점,인천광역시 남동구 서창동 707-3,"37.42357222558697","126.75010609676752"
포토그레이,인천,용현동점,인천광역시 미추홀구 토금중로47번길 1,"37.45244023354745","126.63846741810057"
포토그레이,인천,옥련동점,인천광역시 연수구 한진로 23,"37.42465883519632","126.64784244689793"
포토그레이,인천,인하대점,인천광역시 미추홀구 인하로 75-1,"37.451341652971806","126.65681798936312"
하루필름,인천,부평1호점,인천광역시 부평구 부평대로32번길 11,"37.494425110261716","126.72367502373781"
하루필름,인천,부평2호점,인천광역시 부평구 부평문화로80번길 36-1,"126.72399157209574","126.72399157209574"
하루필름,인천,구월점,인천광역시 남동구 예술로 126,"37.44510473857977","126.70087380194077"
하루필름,인천,영종도점,인천광역시 중구 화랑목로 12,"37.49439358107618","126.49855171980302"
하루필름,인천,송도점,인천광역시 연수구 송도과학로 16번길 13-18,"37.381001899482705","126.66079424999988"
인생네컷,인천,계산로드점,인천광역시 계양구 계산로 102 석천빌딩,"37.53733958781569","126.72359029014154"
인생네컷,인천,논현로드점,인천광역시 남동구 논현남로18번길 4,"37.40293099817081","126.72231720381176"
포토그레이,인천,부평점,인천광역시 부평구 부평대로12번길 15,"37.49256112411191","126.72414268400752"
